VSP RF A1               
1 59135U 24043AP  26066.03073316  .00000577  00000+0  25199-4 0  9997
2 59135  97.5247 201.5379 0009431 234.6315 125.4042 15.26179596111403
STARLINK-31544          
1 59399U 24064B   26068.04493470  .00000291  00000+0  20080-4 0  9999
2 59399  43.0027  60.1166 0001292 271.7912  88.2792 15.27581907109120
